{
  "type": "FeatureCollection",
  "features": [
    {
      "type": "Feature",
      "properties": {
        "norad_id": 33612,
        "name": "FENGYUN 1C DEB",
        "group": "fengyun-1c-debris",
        "lat": -72.30173569973212,
        "lon": 120.15638475846472,
        "alt_km": 967.2812678359633,
        "timestamp": "2025-12-25T22:42:17.298131+00:00",
        "meta_object_name": "FENGYUN 1C DEB",
        "meta_object_id": "1999-025DCV",
        "meta_epoch": "2025-12-13T20:28:43.869792",
        "meta_mean_motion": 14.04084486,
        "meta_eccentricity": 0.01112826,
        "meta_inclination": 98.5972,
        "meta_ra_of_asc_node": 317.0094,
        "meta_arg_of_pericenter": 105.6891,
        "meta_mean_anomaly": 255.6586,
        "meta_ephemeris_type": 0,
        "meta_classification_type": "U",
        "meta_norad_cat_id": 33612,
        "meta_element_set_no": 999,
        "meta_rev_at_epoch": 56689,
        "meta_bstar": 0.0022025481,
        "meta_mean_motion_dot": 3.646e-05,
        "meta_mean_motion_ddot": 0,
        "tle_line1": "1 33612U 99025DCV 25347.85328553  .00003646  00000+0  22025-2 0  9991",
        "tle_line2": "2 33612  98.5972 317.0094 0111282 105.6891 255.6586 14.04084486566896"
      },
      "geometry": {
        "type": "Point",
        "coordinates": [
          120.15638475846472,
          -72.30173569973212
        ]
      }
    },
    {
      "type": "Feature",
      "properties": {
        "norad_id": 33613,
        "name": "FENGYUN 1C DEB",
        "group": "fengyun-1c-debris",
        "lat": -18.859946059358226,
        "lon": 74.70946907969255,
        "alt_km": 777.9193130037438,
        "timestamp": "2025-12-25T22:42:17.298141+00:00",
        "meta_object_name": "FENGYUN 1C DEB",
        "meta_object_id": "1999-025DCW",
        "meta_epoch": "2025-12-23T22:12:25.455168",
        "meta_mean_motion": 14.3330666,
        "meta_eccentricity": 0.0029742,
        "meta_inclination": 98.6954,
        "meta_ra_of_asc_node": 69.6839,
        "meta_arg_of_pericenter": 55.8226,
        "meta_mean_anomaly": 304.5771,
        "meta_ephemeris_type": 0,
        "meta_classification_type": "U",
        "meta_norad_cat_id": 33613,
        "meta_element_set_no": 999,
        "meta_rev_at_epoch": 64670,
        "meta_bstar": 0.00192,
        "meta_mean_motion_dot": 5.272e-05,
        "meta_mean_motion_ddot": 0,
        "tle_line1": "1 33613U 99025DCW 25357.92529462  .00005272  00000+0  19200-2 0  9991",
        "tle_line2": "2 33613  98.6954  69.6839 0029742  55.8226 304.5771 14.33306660646704"
      },
      "geometry": {
        "type": "Point",
        "coordinates": [
          74.70946907969255,
          -18.859946059358226
        ]
      }
    },
    {
      "type": "Feature",
      "properties": {
        "norad_id": 33618,
        "name": "FENGYUN 1C DEB",
        "group": "fengyun-1c-debris",
        "lat": 15.766030994148515,
        "lon": -89.8584113671299,
        "alt_km": 634.4695806513155,
        "timestamp": "2025-12-25T22:42:17.298152+00:00",
        "meta_object_name": "FENGYUN 1C DEB",
        "meta_object_id": "1999-025DDB",
        "meta_epoch": "2025-12-25T17:02:48.808896",
        "meta_mean_motion": 14.62252038,
        "meta_eccentricity": 0.0164904,
        "meta_inclination": 98.5293,
        "meta_ra_of_asc_node": 87.4698,
        "meta_arg_of_pericenter": 100.4131,
        "meta_mean_anomaly": 261.5701,
        "meta_ephemeris_type": 0,
        "meta_classification_type": "U",
        "meta_norad_cat_id": 33618,
        "meta_element_set_no": 999,
        "meta_rev_at_epoch": 96973,
        "meta_bstar": 0.00080409,
        "meta_mean_motion_dot": 4.873e-05,
        "meta_mean_motion_ddot": 0,
        "tle_line1": "1 33618U 99025DDB 25359.71028714  .00004873  00000+0  80409-3 0  9995",
        "tle_line2": "2 33618  98.5293  87.4698 0164904 100.4131 261.5701 14.62252038969734"
      },
      "geometry": {
        "type": "Point",
        "coordinates": [
          -89.8584113671299,
          15.766030994148515
        ]
      }
    },
    {
      "type": "Feature",
      "properties": {
        "norad_id": 33619,
        "name": "FENGYUN 1C DEB",
        "group": "fengyun-1c-debris",
        "lat": 77.5939856622549,
        "lon": 24.14279600074921,
        "alt_km": 815.7208797020285,
        "timestamp": "2025-12-25T22:42:17.298162+00:00",
        "meta_object_name": "FENGYUN 1C DEB",
        "meta_object_id": "1999-025DDC",
        "meta_epoch": "2025-12-22T11:19:13.450944",
        "meta_mean_motion": 14.17552951,
        "meta_eccentricity": 0.00502437,
        "meta_inclination": 98.8607,
        "meta_ra_of_asc_node": 65.8437,
        "meta_arg_of_pericenter": 17.8745,
        "meta_mean_anomaly": 342.4183,
        "meta_ephemeris_type": 0,
        "meta_classification_type": "U",
        "meta_norad_cat_id": 33619,
        "meta_element_set_no": 999,
        "meta_rev_at_epoch": 63762,
        "meta_bstar": 0.0012593794,
        "meta_mean_motion_dot": 2.545e-05,
        "meta_mean_motion_ddot": 0,
        "tle_line1": "1 33619U 99025DDC 25356.47168346  .00002545  00000+0  12594-2 0  9995",
        "tle_line2": "2 33619  98.8607  65.8437 0050243  17.8745 342.4183 14.17552951637620"
      },
      "geometry": {
        "type": "Point",
        "coordinates": [
          24.14279600074921,
          77.5939856622549
        ]
      }
    },
    {
      "type": "Feature",
      "properties": {
        "norad_id": 33621,
        "name": "FENGYUN 1C DEB",
        "group": "fengyun-1c-debris",
        "lat": 78.65593137093934,
        "lon": 164.1473541688023,
        "alt_km": 1023.136760840619,
        "timestamp": "2025-12-25T22:42:17.298173+00:00",
        "meta_object_name": "FENGYUN 1C DEB",
        "meta_object_id": "1999-025DDE",
        "meta_epoch": "2025-12-10T20:17:14.702784",
        "meta_mean_motion": 14.19482835,
        "meta_eccentricity": 0.02846988,
        "meta_inclination": 98.1391,
        "meta_ra_of_asc_node": 195.7496,
        "meta_arg_of_pericenter": 300.0128,
        "meta_mean_anomaly": 57.3079,
        "meta_ephemeris_type": 0,
        "meta_classification_type": "U",
        "meta_norad_cat_id": 33621,
        "meta_element_set_no": 999,
        "meta_rev_at_epoch": 64217,
        "meta_bstar": 0.00099524636,
        "meta_mean_motion_dot": 3.099e-05,
        "meta_mean_motion_ddot": 0,
        "tle_line1": "1 33621U 99025DDE 25344.84530906  .00003099  00000+0  99525-3 0  9996",
        "tle_line2": "2 33621  98.1391 195.7496 0284698 300.0128  57.3079 14.19482835642176"
      },
      "geometry": {
        "type": "Point",
        "coordinates": [
          164.1473541688023,
          78.65593137093934
        ]
      }
    },
    {
      "type": "Feature",
      "properties": {
        "norad_id": 33625,
        "name": "FENGYUN 1C DEB",
        "group": "fengyun-1c-debris",
        "lat": 39.27421558321253,
        "lon": -61.71653048246868,
        "alt_km": 572.9350437432822,
        "timestamp": "2025-12-25T22:42:17.298183+00:00",
        "meta_object_name": "FENGYUN 1C DEB",
        "meta_object_id": "1999-025DDJ",
        "meta_epoch": "2025-12-22T18:29:10.172832",
        "meta_mean_motion": 14.61162738,
        "meta_eccentricity": 0.02254632,
        "meta_inclination": 98.6202,
        "meta_ra_of_asc_node": 107.8479,
        "meta_arg_of_pericenter": 104.3386,
        "meta_mean_anomaly": 258.2958,
        "meta_ephemeris_type": 0,
        "meta_classification_type": "U",
        "meta_norad_cat_id": 33625,
        "meta_element_set_no": 999,
        "meta_rev_at_epoch": 61537,
        "meta_bstar": 0.0010940286,
        "meta_mean_motion_dot": 7.684e-05,
        "meta_mean_motion_ddot": 0,
        "tle_line1": "1 33625U 99025DDJ 25356.77025663  .00007684  00000+0  10940-2 0  9991",
        "tle_line2": "2 33625  98.6202 107.8479 0225463 104.3386 258.2958 14.61162738615371"
      },
      "geometry": {
        "type": "Point",
        "coordinates": [
          -61.71653048246868,
          39.27421558321253
        ]
      }
    },
    {
      "type": "Feature",
      "properties": {
        "norad_id": 33630,
        "name": "FENGYUN 1C DEB",
        "group": "fengyun-1c-debris",
        "lat": 31.61769730446538,
        "lon": 100.3942007338668,
        "alt_km": 734.0168354276702,
        "timestamp": "2025-12-25T22:42:17.298194+00:00",
        "meta_object_name": "FENGYUN 1C DEB",
        "meta_object_id": "1999-025DDP",
        "meta_epoch": "2025-12-25T00:32:20.779008",
        "meta_mean_motion": 14.17738798,
        "meta_eccentricity": 0.01347576,
        "meta_inclination": 98.616,
        "meta_ra_of_asc_node": 104.8539,
        "meta_arg_of_pericenter": 32.9099,
        "meta_mean_anomaly": 328.0377,
        "meta_ephemeris_type": 0,
        "meta_classification_type": "U",
        "meta_norad_cat_id": 33630,
        "meta_element_set_no": 999,
        "meta_rev_at_epoch": 64585,
        "meta_bstar": 0.000328385,
        "meta_mean_motion_dot": 6.9e-06,
        "meta_mean_motion_ddot": 0,
        "tle_line1": "1 33630U 99025DDP 25359.02246272  .00000690  00000+0  32839-3 0  9991",
        "tle_line2": "2 33630  98.6160 104.8539 0134757  32.9099 328.0377 14.17738798645859"
      },
      "geometry": {
        "type": "Point",
        "coordinates": [
          100.3942007338668,
          31.61769730446538
        ]
      }
    }
  ]
}